BOOTH NAME,VENUE NAME,ADDRESS,DISTRICT,REGION,Greens %,VENUE NAME,ADDRESS,LATITUDE,LONGITUDE
Aberdeen,Matthew Flinders Girls Secondary College,corner Myers Street and Latrobe Terrace Geelong,Geelong,Western Victoria,15.47,Matthew Flinders Girls Secondary College,corner Myers Street and Latrobe Terrace Geelong,-38.150649,144.35427
Aireys Inlet,Aireys Inlet Community Centre,6 Great Ocean Road Aireys Inlet,Polwarth,Western Victoria,30.30,Aireys Inlet Community Centre,6 Great Ocean Road Aireys Inlet,-38.456476,144.108107
Alfredton,McCallum Community Centre,29 Learmonth Street Alfredton,Wendouree,Western Victoria,8.01,McCallum Community Centre,29 Learmonth Street Alfredton,-37.557996,143.813805
Alfredton West,Alfredton Primary School,Cuthberts Road Alfredton,Wendouree,Western Victoria,9.82,Alfredton Primary School,Cuthberts Road Alfredton,-37.554922,143.801654
Allansford,Allansford Primary School,Frank Street Allansford,South-West Coast,Western Victoria,9.43,Allansford Primary School,Frank Street Allansford,-38.386084,142.59024
Alvie,Alvie Consolidated School,Wool Wool Road Alvie,Polwarth,Western Victoria,9.26,Alvie Consolidated School,Wool Wool Road Alvie,-38.241899,143.50332
Amphitheatre,Amphitheatre Public Hall,Baily Street Amphitheatre,Ripon,Western Victoria,9.66,Amphitheatre Public Hall,Baily Street Amphitheatre,-37.182264,143.399305
Anakie,Anakie Community House,2115 Ballan Road Anakie,Lara,Western Victoria,11.39,Anakie Community House,2115 Ballan Road Anakie,-37.903202,144.253141
Anglesea,Anglesea Memorial Hall,McMillan Street Anglesea,Polwarth,Western Victoria,17.29,Anglesea Memorial Hall,McMillan Street Anglesea,-38.40949,144.185374
Antwerp,Antwerp Community Hall,Antwerp-Woorak Road Antwerp,Lowan,Western Victoria,3.75,Antwerp Community Hall,Antwerp-Woorak Road Antwerp,-36.296521,142.025237
Apollo Bay,Apollo Bay Leisure Centre,Costin Street Apollo Bay,Polwarth,Western Victoria,20.68,Apollo Bay Leisure Centre,Costin Street Apollo Bay,-38.751022,143.660825
Apsley,Apsley Hall,62 Wallace Street Apsley,Lowan,Western Victoria,5.07,Apsley Hall,62 Wallace Street Apsley,-36.967844,141.082088
Ararat,Ararat Senior Citizens Clubrooms,High Street Ararat,Ripon,Western Victoria,5.13,Ararat Senior Citizens Clubrooms,High Street Ararat,-37.282772,142.928624
Ararat West,Ararat Community College,corner Benbow and Laby Streets Ararat,Ripon,Western Victoria,6.58,Ararat Community College,corner Benbow and Laby Streets Ararat,-37.28578,142.92303
Ascot,Ascot Hall,Ascot Hall Road Ascot,Ripon,Western Victoria,4.76,Ascot Hall,Ascot Hall Road Ascot,-37.398225,143.802836
Avalon,Avalon Airport,80 Beach Road Lara,Lara,Western Victoria,19.05,Avalon Airport,80 Beach Road Lara,-38.026587,144.472517
Avoca,Avoca RSL Hall,High Street Avoca,Ripon,Western Victoria,6.50,Avoca RSL Hall,High Street Avoca,-37.085049,143.47247
Bacchus Marsh,Bacchus Marsh Leisure Centre,Labilliere Street Bacchus Marsh,Melton,Western Victoria,11.67,Bacchus Marsh Leisure Centre,Labilliere Street Bacchus Marsh,-37.68392,144.432003
Bacchus Marsh Central,Bacchus Marsh RSL Hall,Main Street Bacchus Marsh,Melton,Western Victoria,11.25,Bacchus Marsh RSL Hall,Main Street Bacchus Marsh,-37.676371,144.440664
Ballan,Ballan Senior Citizens Centre,7 Steiglitz Street Ballan,Buninyong,Western Victoria,11.03,Ballan Senior Citizens Centre,7 Steiglitz Street Ballan,-37.601708,144.236973
Ballarat,St Andrews Church Hall,Dawson Street North Ballarat,Wendouree,Western Victoria,19.21,St Andrews Church Hall,Dawson Street North Ballarat,-37.560737,143.852641
Ballarat Central,Dana Street Primary School,corner Dana and Doveton Streets Ballarat,Wendouree,Western Victoria,21.80,Dana Street Primary School,corner Dana and Doveton Streets Ballarat,-37.5642,143.853434
Ballarat City,St Cuthberts Church Hall,corner Sturt and Elliot Streets Ballarat,Wendouree,Western Victoria,8.75,St Cuthberts Church Hall,corner Sturt and Elliot Streets Ballarat,-37.558612,143.834127
Ballarat North,Ballarat North Primary School,513 Landsborough Street Ballarat North,Wendouree,Western Victoria,9.10,Ballarat North Primary School,513 Landsborough Street Ballarat North,-37.54113,143.863059
Ballarat North West,Pleasant Street Primary School,Pleasant Street North Ballarat,Wendouree,Western Victoria,14.45,Pleasant Street Primary School,Pleasant Street North Ballarat,-37.556661,143.838649
Ballarat South,St Aloysius Primary School,Ripon Street South Ballarat,Wendouree,Western Victoria,11.89,St Aloysius Primary School,Ripon Street South Ballarat,-37.578542,143.837657
Ballarat South West,Urquhart Park Primary School,49 Inkerman Street Ballarat,Wendouree,Western Victoria,12.19,Urquhart Park Primary School,49 Inkerman Street Ballarat,-37.566104,143.831577
Balmoral,Balmoral Memorial Hall,Glendinning Street Balmoral,Lowan,Western Victoria,2.63,Balmoral Memorial Hall,Glendinning Street Balmoral,-37.248557,141.843042
Bannockburn,Bannockburn Primary School,27 High Street Bannockburn,Polwarth,Western Victoria,7.55,Bannockburn Primary School,27 High Street Bannockburn,-38.04609,144.169922
Barwon,South Geelong Primary School,200 Yarra Street Geelong,Geelong,Western Victoria,19.33,South Geelong Primary School,200 Yarra Street Geelong,-38.156498,144.358987
Barwon Heads,Barwon Heads Primary School,Golf Links Road Barwon Heads,Bellarine,Western Victoria,21.55,Barwon Heads Primary School,Golf Links Road Barwon Heads,-38.28119,144.484843
Beacon Point,Beacon Point Kindergarten,49-55 Centaurus Avenue Clifton Springs,Bellarine,Western Victoria,7.47,Beacon Point Kindergarten,49-55 Centaurus Avenue Clifton Springs,-38.148479,144.574848
Bealiba,Bealiba Primary School,Grant Street Bealiba,Ripon,Western Victoria,5.70,Bealiba Primary School,Grant Street Bealiba,-36.789485,143.552137
Beaufort,Beaufort Community Development Centre,1 Lawrence Street Beaufort,Ripon,Western Victoria,6.04,Beaufort Community Development Centre,1 Lawrence Street Beaufort,-37.427975,143.384244
Beeac,Beeac Primary School,35 Lang Street Beeac,Polwarth,Western Victoria,4.60,Beeac Primary School,35 Lang Street Beeac,-38.194067,143.643592
Bell Park,Bell Park North Primary School,Barton Street Bell Park,Lara,Western Victoria,6.90,Bell Park North Primary School,Barton Street Bell Park,-38.105572,144.335736
Bell Park South,Nelson Park School,49 Libau Avenue Bell Park,Lara,Western Victoria,7.28,Nelson Park School,49 Libau Avenue Bell Park,-38.113761,144.337929
Bellaire,Clairvaux Parish Hall,45 Reynolds Road Belmont,Geelong,Western Victoria,7.76,Clairvaux Parish Hall,45 Reynolds Road Belmont,-38.185669,144.323738
Bellbrae,Bellbrae Primary School,50 School Road Bellbrae,South Barwon,Western Victoria,27.27,Bellbrae Primary School,50 School Road Bellbrae,-38.333782,144.262198
Belmont,Kardinia Christian Church,119 Roslyn Road Belmont,Geelong,Western Victoria,11.29,Kardinia Christian Church,119 Roslyn Road Belmont,-38.174984,144.337936
Belmont North,Belmont Primary School,Mount Pleasant Road Belmont,Geelong,Western Victoria,13.34,Belmont Primary School,Mount Pleasant Road Belmont,-38.171154,144.342024
Birregurra,Birregurra Community Health Centre,28-30 Strachan Street Birregurra,Polwarth,Western Victoria,13.40,Birregurra Community Health Centre,28-30 Strachan Street Birregurra,-38.33628,143.786164
Black Hill,Black Hill Primary School,601 Chisholm Street Ballarat,Wendouree,Western Victoria,16.10,Black Hill Primary School,601 Chisholm Street Ballarat,-37.549415,143.869491
Bolwarra,Bolwarra Primary School,249 Henty Highway Bolwarra,South-West Coast,Western Victoria,4.79,Bolwarra Primary School,249 Henty Highway Bolwarra,-38.281644,141.613823
Bowenvale,Bowenvale Public Hall,Timor Road Bowenvale,Ripon,Western Victoria,2.40,Bowenvale Public Hall,Timor Road Bowenvale,-36.994584,143.713735
Branxholme,Branxholme Hall,McNicol Street Branxholme,Lowan,Western Victoria,3.70,Branxholme Hall,McNicol Street Branxholme,-37.85737,141.796613
Bridgewater,Bridgewater Hall,Eilden Street Bridgewater,Ripon,Western Victoria,4.62,Bridgewater Hall,Eilden Street Bridgewater,-36.60249,143.943944
Brim,Brim Memorial Hall,Swann Street Brim,Lowan,Western Victoria,2.40,Brim Memorial Hall,Swann Street Brim,-36.075956,142.41647
Britannia,St Patricks Catholic Primary School,11 Petrel Street Geelong West,Geelong,Western Victoria,14.29,St Patricks Catholic Primary School,11 Petrel Street Geelong West,-38.134839,144.346027
Buangor,Buangor Primary School,26 School Road Buangor,Ripon,Western Victoria,2.68,Buangor Primary School,26 School Road Buangor,-37.363959,143.174883
Bulmans,St Catherines Primary School,Bulmans Road Melton,Melton,Western Victoria,7.73,St Catherines Primary School,Bulmans Road Melton,-37.678441,144.550356
Bungaree,Bungaree Mechanics Institute,234 Bungaree-Wallace Road Bungaree,Buninyong,Western Victoria,2.88,Bungaree Mechanics Institute,234 Bungaree-Wallace Road Bungaree,-37.557598,144.001937
Buninyong,Buninyong Primary School,202 Simpson Street Buninyong,Buninyong,Western Victoria,14.59,Buninyong Primary School,202 Simpson Street Buninyong,-37.654132,143.88702
Byaduk,Byaduk Mechanics Institute,5748 Hamilton - Port Fairy Road Byaduk,Lowan,Western Victoria,8.00,Byaduk Mechanics Institute,5748 Hamilton - Port Fairy Road Byaduk,-37.95133,141.95585
Caledonian,Caledonian Primary School,Thompson Street Brown Hill,Wendouree,Western Victoria,11.81,Caledonian Primary School,Thompson Street Brown Hill,-37.555667,143.894759
Camperdown,Camperdown P-12 College,Wilson Street Camperdown,Polwarth,Western Victoria,5.77,Camperdown P-12 College,Wilson Street Camperdown,-38.23959,143.144529
Canadian,Canadian Lead Primary School,Otway Street South Ballarat,Buninyong,Western Victoria,10.68,Canadian Lead Primary School,Otway Street South Ballarat,-37.572949,143.877091
Cape Clear,Cape Clear Hall,Recreational Reserve Road Cape Clear,Buninyong,Western Victoria,5.65,Cape Clear Hall,Recreational Reserve Road Cape Clear,-37.788533,143.610525
Caramut,Caramut War Memorial Hall,Brown Street Caramut,South-West Coast,Western Victoria,3.88,Caramut War Memorial Hall,Brown Street Caramut,-37.956873,142.519865
Carisbrook,Carisbrook Town Hall,Bucknall Street Carisbrook,Ripon,Western Victoria,6.57,Carisbrook Town Hall,Bucknall Street Carisbrook,-37.045861,143.813925
Carpendeit,Carpendeit Public Hall,corner Ansons and Carpendeit-Bungador Roads Carpendeit,Polwarth,Western Victoria,3.09,Carpendeit Public Hall,corner Ansons and Carpendeit-Bungador Roads Carpendeit,-38.370008,143.241865
Casterton,Casterton Town Hall,67 Henty Street Casterton,Lowan,Western Victoria,5.52,Casterton Town Hall,67 Henty Street Casterton,-37.584797,141.405297
Cavendish,Cavendish Memorial Hall,19 Barker Street Cavendish,Lowan,Western Victoria,4.45,Cavendish Memorial Hall,19 Barker Street Cavendish,-37.528079,142.040328
Ceres,Ceres Primary School,605 Barrabool Road Ceres,South Barwon,Western Victoria,10.63,Ceres Primary School,605 Barrabool Road Ceres,-38.173771,144.2674
Charlton,Charlton Senior Citizens Hall,1 High Street Charlton,Ripon,Western Victoria,5.22,Charlton Senior Citizens Hall,1 High Street Charlton,-36.267316,143.348205
Chilwell,Chilwell Primary School,313a Pakington Street Newtown,Geelong,Western Victoria,14.00,Chilwell Primary School,313a Pakington Street Newtown,-38.154985,144.344475
Clarkes Hill,St Marys Catholic School,131 Powells Road Clarkes Hill,Buninyong,Western Victoria,5.88,St Marys Catholic School,131 Powells Road Clarkes Hill,-37.498444,143.989687
Clifton Springs,Clifton Springs Primary School,186 Jetty Road Clifton Springs,Bellarine,Western Victoria,8.84,Clifton Springs Primary School,186 Jetty Road Clifton Springs,-38.16549,144.552534
Clunes,Clunes Town Hall,Ballarat-Maryborough Road Clunes,Ripon,Western Victoria,10.87,Clunes Town Hall,Ballarat-Maryborough Road Clunes,-37.295056,143.7853
Cobden,Cobden Civic Hall,corner Victoria and Silvester Streets Cobden,Polwarth,Western Victoria,5.16,Cobden Civic Hall,corner Victoria and Silvester Streets Cobden,-38.326983,143.077041
Coburn,Coburn Primary School,Richard Road Melton South,Melton,Western Victoria,9.28,Coburn Primary School,Richard Road Melton South,-37.693603,144.572587
Colac,Bluewater Fitness Centre,118-134 Hearn Street Colac,Polwarth,Western Victoria,7.71,Bluewater Fitness Centre,118-134 Hearn Street Colac,-38.35062,143.589882
Colac East,Colac Primary School,65 Murray Street East  Colac,Polwarth,Western Victoria,6.02,Colac Primary School,65 Murray Street East  Colac,-38.3371,143.598093
Colac West,Wesley Uniting Church,corner Grant and Skene Streets Colac,Polwarth,Western Victoria,6.09,Wesley Uniting Church,corner Grant and Skene Streets Colac,-38.337832,143.582064
Coleraine,Coleraine Primary School,124 Church Street (enter via McConchie Street) Coleraine,Lowan,Western Victoria,4.25,Coleraine Primary School,124 Church Street (enter via McConchie Street) Coleraine,-37.601728,141.684041
Collendina,Bellarine Aquatic and Sports Centre,Shell Road Ocean Grove,Bellarine,Western Victoria,14.70,Bellarine Aquatic and Sports Centre,Shell Road Ocean Grove,-38.258731,144.539811
Concongella,Concongella Primary School,61 Old Concongella-School Road Concongella,Ripon,Western Victoria,1.88,Concongella Primary School,61 Old Concongella-School Road Concongella,-37.049296,142.82255
Condah,Condah Hall,5162 Henty Highway Condah,South-West Coast,Western Victoria,3.05,Condah Hall,5162 Henty Highway Condah,-37.955218,141.746916
Corio,Flinders Peak Secondary College,95 Hendy Street Corio,Lara,Western Victoria,7.29,Flinders Peak Secondary College,95 Hendy Street Corio,-38.064365,144.365697
Corio Central,Cloverdale Community Centre,167-169 Purnell Road Corio,Lara,Western Victoria,7.02,Cloverdale Community Centre,167-169 Purnell Road Corio,-38.072735,144.34381
Corio West,Corio Bay Senior College,3 Goldsworthy Road Corio,Lara,Western Victoria,9.18,Corio Bay Senior College,3 Goldsworthy Road Corio,-38.079259,144.355369
Cororooke,Cororooke Public Hall,Corangamite Lake Road Cororooke,Polwarth,Western Victoria,6.48,Cororooke Public Hall,Corangamite Lake Road Cororooke,-38.285601,143.522692
Cressy,Cressy Primary School,21 Yarima Road Cressy,Polwarth,Western Victoria,2.53,Cressy Primary School,21 Yarima Road Cressy,-38.026604,143.633533
Creswick,Creswick Adult Learning Centre and Neighbourhood House,19-21 Victoria Street Creswick,Ripon,Western Victoria,11.23,Creswick Adult Learning Centre and Neighbourhood House,19-21 Victoria Street Creswick,-37.422128,143.892638
Dadswells Bridge,Dadswells Bridge Public Hall,5820 Western Highway Dadswells Bridge,Lowan,Western Victoria,5.71,Dadswells Bridge Public Hall,5820 Western Highway Dadswells Bridge,-36.918619,142.517408
Darley,Darley Primary School,Nelson Street Darley,Melton,Western Victoria,10.02,Darley Primary School,Nelson Street Darley,-37.654996,144.436472
Dartmoor,Dartmoor Hall,Greenham Street Dartmoor,Lowan,Western Victoria,3.72,Dartmoor Hall,Greenham Street Dartmoor,-37.922042,141.27637
Deans Marsh,Deans Marsh Public Hall,Pennyroyal Valley Road Deans Marsh,Polwarth,Western Victoria,27.34,Deans Marsh Public Hall,Pennyroyal Valley Road Deans Marsh,-38.398775,143.885112
Delacombe,Delacombe Primary School,Warrina Drive Delacombe,Wendouree,Western Victoria,6.37,Delacombe Primary School,Warrina Drive Delacombe,-37.585124,143.818203
Dereel,Dereel Soldiers' Memorial Community Centre,Swamp Road Dereel,Buninyong,Western Victoria,15.33,Dereel Soldiers' Memorial Community Centre,Swamp Road Dereel,-37.819586,143.753478
Dergholm,Dergholm Hall,3502 Casterton-Apsley Road Dergholm,Lowan,Western Victoria,3.75,Dergholm Hall,3502 Casterton-Apsley Road Dergholm,-37.37091,141.215482
Derrinallum,Derrinallum Community Hall,Main Street Derrinallum,Polwarth,Western Victoria,5.08,Derrinallum Community Hall,Main Street Derrinallum,-37.948114,143.216717
Dimboola,Dimboola Uniting Church,Normanby Street Dimboola,Lowan,Western Victoria,4.83,Dimboola Uniting Church,Normanby Street Dimboola,-36.451127,142.026189
Donald,Donald Senior Citizens Centre,4 Hamill Street Donald,Ripon,Western Victoria,3.07,Donald Senior Citizens Centre,4 Hamill Street Donald,-36.368781,142.981725
Dooen,Dooen Public Hall,1025 Henty Highway Dooen,Lowan,Western Victoria,3.08,Dooen Public Hall,1025 Henty Highway Dooen,-36.659019,142.255287
Drysdale,Drysdale Uniting Church Hall,Palmerston Street Drysdale,Bellarine,Western Victoria,9.25,Drysdale Uniting Church Hall,Palmerston Street Drysdale,-38.173359,144.569019
Dunkeld,Dunkeld Hall,Stirling Street Dunkeld,Lowan,Western Victoria,7.84,Dunkeld Hall,Stirling Street Dunkeld,-37.651345,142.34219
Dunolly,Dunolly Senior Citizens Clubrooms,Bull Street Dunolly,Ripon,Western Victoria,6.79,Dunolly Senior Citizens Clubrooms,Bull Street Dunolly,-36.858217,143.731912
Ecklin,Ecklin Hall,Timboon-Terang Road Ecklin,Polwarth,Western Victoria,2.20,Ecklin Hall,Timboon-Terang Road Ecklin,-38.389179,142.909889
Edenhope,Edenhope Mechanics Institute,Elizabeth Street Edenhope,Lowan,Western Victoria,5.16,Edenhope Mechanics Institute,Elizabeth Street Edenhope,-37.035979,141.294854
Elaine,Elaine Mechanics Institute,Pearson Street Elaine,Buninyong,Western Victoria,9.16,Elaine Mechanics Institute,Pearson Street Elaine,-37.777334,144.032378
Elliminyt,Elliminyt Primary Events & Education Centre,Main Road Elliminyt,Polwarth,Western Victoria,5.85,Elliminyt Primary Events & Education Centre,Main Road Elliminyt,-38.361319,143.583606
Elmhurst,Elmhurst Mechanics Hall,High Street Elmhurst,Ripon,Western Victoria,10.65,Elmhurst Mechanics Hall,High Street Elmhurst,-37.179521,143.248468
Exford,Exford Primary School,Exford Road Exford,Melton,Western Victoria,8.84,Exford Primary School,Exford Road Exford,-37.74472,144.558869
Forrest,Forrest Public Hall,Grant Street Forrest,Polwarth,Western Victoria,19.73,Forrest Public Hall,Grant Street Forrest,-38.517181,143.714053
Fyans Park,St Joseph's College,135 Aphrasia Street Newtown,Geelong,Western Victoria,11.00,St Joseph's College,135 Aphrasia Street Newtown,-38.150198,144.331867
Fyansford,Stonehaven CFA Fire Station,corner Dog Rocks and Fyansford-Gheringhap Roads Stonehaven,Polwarth,Western Victoria,8.17,Stonehaven CFA Fire Station,corner Dog Rocks and Fyansford-Gheringhap Roads Stonehaven,-38.112876,144.265947
Geelong,Geelong High School,385 Ryrie Street Geelong,Geelong,Western Victoria,14.82,Geelong High School,385 Ryrie Street Geelong,-38.152556,144.372099
Geelong East,Geelong East Primary School,184 Boundary Road Geelong East,Geelong,Western Victoria,10.04,Geelong East Primary School,184 Boundary Road Geelong East,-38.175381,144.381596
Geelong West,Ashby Primary School,2 Lawton Avenue Geelong West,Geelong,Western Victoria,19.49,Ashby Primary School,2 Lawton Avenue Geelong West,-38.138279,144.34718
Gellibrand River,Gellibrand Hall,Colac-Lavers Hill Road Gellibrand,Polwarth,Western Victoria,21.33,Gellibrand Hall,Colac-Lavers Hill Road Gellibrand,-38.528449,143.539397
Glenorchy,Glenorchy Memorial Hall,Forest Street Glenorchy,Ripon,Western Victoria,6.94,Glenorchy Memorial Hall,Forest Street Glenorchy,-36.907801,142.662098
Glenthompson,Glenthompson Primary School,Memorial Drive Glenthompson,Lowan,Western Victoria,3.66,Glenthompson Primary School,Memorial Drive Glenthompson,-37.637899,142.549899
Gorae West,Gorae West Hall,Portland-Nelson Road Gorae West,South-West Coast,Western Victoria,11.96,Gorae West Hall,Portland-Nelson Road Gorae West,-38.245341,141.489062
Gordon,Gordon Public Hall,68 Main Street Gordon,Buninyong,Western Victoria,11.22,Gordon Public Hall,68 Main Street Gordon,-37.580169,144.10391
Goroke,Goroke Memorial Hall,Main Street Goroke,Lowan,Western Victoria,3.46,Goroke Memorial Hall,Main Street Goroke,-36.718831,141.474141
Grassmere,Grassmere Primary School,16 Ibbs Lane Grassmere,South-West Coast,Western Victoria,9.52,Grassmere Primary School,16 Ibbs Lane Grassmere,-38.284959,142.523278
Great Western,Great Western Primary School,Stephenson Street Great Western,Ripon,Western Victoria,7.14,Great Western Primary School,Stephenson Street Great Western,-37.148347,142.851318
Grovedale,Grovedale  College,Wingarra Drive Grovedale,South Barwon,Western Victoria,7.88,Grovedale  College,Wingarra Drive Grovedale,-38.210474,144.328576
Grovedale Central,Grovedale Primary School,143 Bailey Street Grovedale,South Barwon,Western Victoria,9.01,Grovedale Primary School,143 Bailey Street Grovedale,-38.197109,144.348065
Grovedale East,Grovedale Uniting Church Hall,corner Reserve and Torquay Roads Grovedale,South Barwon,Western Victoria,7.41,Grovedale Uniting Church Hall,corner Reserve and Torquay Roads Grovedale,-38.205665,144.340895
Haddon,Haddon Recreation Centre,398 Sago Hill Road Haddon,Buninyong,Western Victoria,12.68,Haddon Recreation Centre,398 Sago Hill Road Haddon,-37.589092,143.72415
Halls Gap,Halls Gap Community Hall,Grampians Road Halls Gap,Lowan,Western Victoria,17.81,Halls Gap Community Hall,Grampians Road Halls Gap,-37.140147,142.519778
Hamilton,Monivae College,Ballarat Road Hamilton,Lowan,Western Victoria,9.33,Monivae College,Ballarat Road Hamilton,-37.741381,142.048389
Hamilton Central,Hamilton Senior Citizens Clubroom,100 Lonsdale Street Hamilton,Lowan,Western Victoria,7.39,Hamilton Senior Citizens Clubroom,100 Lonsdale Street Hamilton,-37.740966,142.024546
Hamilton North,Hamilton North Primary School,Andrews Street Hamilton,Lowan,Western Victoria,5.88,Hamilton North Primary School,Andrews Street Hamilton,-37.726381,141.995158
Hamlyn Heights,Western Heights College Quamby Campus,Quamby Avenue Hamlyn Heights,Lara,Western Victoria,10.16,Western Heights College Quamby Campus,Quamby Avenue Hamlyn Heights,-38.125458,144.333955
Harrow,Harrow RSL Hall,Blair Street Harrow,Lowan,Western Victoria,4.43,Harrow RSL Hall,Blair Street Harrow,-37.165187,141.593344
Haven,Haven Memorial Hall,4378 Henty Highway Haven,Lowan,Western Victoria,5.17,Haven Memorial Hall,4378 Henty Highway Haven,-36.753896,142.195115
Hawkesdale,Hawkesdale P-12 College,corner Mitchell and Spring Streets Hawkesdale,South-West Coast,Western Victoria,5.68,Hawkesdale P-12 College,corner Mitchell and Spring Streets Hawkesdale,-38.107948,142.317789
Heywood,Heywood Community Complex,Gorrie Street Heywood,South-West Coast,Western Victoria,4.85,Heywood Community Complex,Gorrie Street Heywood,-38.128637,141.619716
Highton,Highton Primary School,218 Roslyn Road Highton,South Barwon,Western Victoria,12.23,Highton Primary School,218 Roslyn Road Highton,-38.171724,144.317248
Highton Central,St Lukes Uniting Church,174 Barrabool Road Highton,South Barwon,Western Victoria,9.59,St Lukes Uniting Church,174 Barrabool Road Highton,-38.169056,144.310224
Highton North,Montpellier Primary School,Lambhill Crescent Highton,South Barwon,Western Victoria,10.46,Montpellier Primary School,Lambhill Crescent Highton,-38.166765,144.316424
Horsham Central,Horsham College - Senior Campus,59 Dimboola Road Horsham,Lowan,Western Victoria,7.46,Horsham College - Senior Campus,59 Dimboola Road Horsham,-36.707539,142.188335
Horsham East,Horsham C.W.A. Hall,corner McPherson and Smith Streets Horsham,Lowan,Western Victoria,6.60,Horsham C.W.A. Hall,corner McPherson and Smith Streets Horsham,-36.713287,142.205268
Horsham North,Horsham North Primary School,2B Rasmussen Road Horsham,Lowan,Western Victoria,4.67,Horsham North Primary School,2B Rasmussen Road Horsham,-36.697666,142.204532
Horsham West,Horsham West Primary School,Hillary Street Horsham,Lowan,Western Victoria,6.73,Horsham West Primary School,Hillary Street Horsham,-36.717182,142.179351
Indented Head,Indented Head Boat Club Hall,The Esplanade Indented Head,Bellarine,Western Victoria,10.09,Indented Head Boat Club Hall,The Esplanade Indented Head,-38.143048,144.714448
Inglewood,Inglewood Primary School,77 Sullivan Street Inglewood,Ripon,Western Victoria,6.03,Inglewood Primary School,77 Sullivan Street Inglewood,-36.573843,143.870465
Inverleigh,Inverleigh Primary School,73 High Street Inverleigh,Polwarth,Western Victoria,8.18,Inverleigh Primary School,73 High Street Inverleigh,-38.101392,144.051331
Irrewillipe East,Irrewillipe Public Hall,2470 Irrewillipe Road Irrewillipe,Polwarth,Western Victoria,5.36,Irrewillipe Public Hall,2470 Irrewillipe Road Irrewillipe,-38.410912,143.441583
Jeparit,Jeparit Pre-School Centre,9 Hindmarsh Street Jeparit,Lowan,Western Victoria,6.90,Jeparit Pre-School Centre,9 Hindmarsh Street Jeparit,-36.143175,141.988234
Jung,Jung Public Hall,28 Baker Street Jung,Lowan,Western Victoria,3.13,Jung Public Hall,28 Baker Street Jung,-36.606952,142.360362
Kaniva,Kaniva Wesley Hall,Baker Street Kaniva,Lowan,Western Victoria,3.64,Kaniva Wesley Hall,Baker Street Kaniva,-36.378336,141.240868
Kardinia Park,Kardinia Park Senior Citizens Club,450 Moorabool Street South Geelong,Geelong,Western Victoria,14.21,Kardinia Park Senior Citizens Club,450 Moorabool Street South Geelong,-38.159902,144.354396
Koroit,Koroit Senior Citizens Rooms,High Street Koroit,South-West Coast,Western Victoria,11.48,Koroit Senior Citizens Rooms,High Street Koroit,-38.29667,142.368268
Korong Vale,Korong Vale Community Centre,Allen Street Korong Vale,Ripon,Western Victoria,6.00,Korong Vale Community Centre,Allen Street Korong Vale,-36.354015,143.706753
Kurunjang,Kurunjang Secondary College,Kurunjang Drive Kurunjang,Melton,Western Victoria,11.24,Kurunjang Secondary College,Kurunjang Drive Kurunjang,-37.671828,144.585137
Laharum,Laharum Primary School,1574 Northern Grampians Road Laharum,Lowan,Western Victoria,17.73,Laharum Primary School,1574 Northern Grampians Road Laharum,-36.945119,142.323248
Lake Bolac,Lake Bolac College,Montgomery Street Lake Bolac,Lowan,Western Victoria,5.45,Lake Bolac College,Montgomery Street Lake Bolac,-37.72023,142.838502
Landsborough,Landsborough Public Hall,Burke Street Landsborough,Ripon,Western Victoria,6.32,Landsborough Public Hall,Burke Street Landsborough,-37.009667,143.134832
Lara,Lara Community Centre,9-15 Waverley Road Lara,Lara,Western Victoria,10.71,Lara Community Centre,9-15 Waverley Road Lara,-38.021873,144.40997
Lara Central,Lara Central Community Hall,1 Flinders Avenue Lara,Lara,Western Victoria,10.47,Lara Central Community Hall,1 Flinders Avenue Lara,-38.021734,144.398025
Lara Lake,Lara Lake Primary School,Forest Road Lara Lake,Lara,Western Victoria,8.65,Lara Lake Primary School,Forest Road Lara Lake,-38.030925,144.396127
Lavers Hill,Lavers Hill Public Hall,47 Great Ocean Road Lavers Hill,Polwarth,Western Victoria,25.00,Lavers Hill Public Hall,47 Great Ocean Road Lavers Hill,-38.682905,143.387345
Learmonth,Learmonth Football and Netball Club,Laidlaw Street Learmonth,Ripon,Western Victoria,6.84,Learmonth Football and Netball Club,Laidlaw Street Learmonth,-37.421393,143.712671
Leopold,Leopold Primary School,1 Kensington Road Leopold,Bellarine,Western Victoria,6.81,Leopold Primary School,1 Kensington Road Leopold,-38.187026,144.463522
Leopold East,Leopold Uniting Church,corner Ash Road and Bellarine Highway Leopold,Bellarine,Western Victoria,8.17,Leopold Uniting Church,corner Ash Road and Bellarine Highway Leopold,-38.190906,144.468456
Lethbridge,Lethbridge Public Hall,25 Russell Street Lethbridge,Buninyong,Western Victoria,8.67,Lethbridge Public Hall,25 Russell Street Lethbridge,-37.965938,144.13401
Lexton,Lexton Community Centre,Sunraysia Highway Lexton,Ripon,Western Victoria,11.05,Lexton Community Centre,Sunraysia Highway Lexton,-37.276188,143.514754
Linton,Linton Primary School,Adair Street Linton,Buninyong,Western Victoria,5.71,Linton Primary School,Adair Street Linton,-37.683822,143.560954
Lismore,Lismore Primary School,77 William Street Lismore,Polwarth,Western Victoria,4.90,Lismore Primary School,77 William Street Lismore,-37.954713,143.339142
Litchfield,Litchfield Hall,18 Main Street Litchfield,Ripon,Western Victoria,1.72,Litchfield Hall,18 Main Street Litchfield,-36.295286,142.845014
Lorne,Lorne Senior Citizens Centre,Otway Street Lorne,Polwarth,Western Victoria,17.97,Lorne Senior Citizens Centre,Otway Street Lorne,-38.540493,143.974975
Macarthur,Macarthur Primary School,23 Russell Street Macarthur,South-West Coast,Western Victoria,3.46,Macarthur Primary School,23 Russell Street Macarthur,-38.030488,142.000224
Magpie,Magpie Primary School,61 Docwra Street Magpie,Buninyong,Western Victoria,7.58,Magpie Primary School,61 Docwra Street Magpie,-37.615601,143.843623
Mailors Flat,Mailors Flat Hall,Warrnambool-Caramut Road Mailors Flat,South-West Coast,Western Victoria,6.52,Mailors Flat Hall,Warrnambool-Caramut Road Mailors Flat,-38.290052,142.47525
Mandama,Mandama Primary School,Corang Avenue Grovedale,South Barwon,Western Victoria,6.79,Mandama Primary School,Corang Avenue Grovedale,-38.199828,144.328372
Manifold Heights,Manifold Heights Primary School,Strachan Avenue Manifold Heights,Geelong,Western Victoria,13.37,Manifold Heights Primary School,Strachan Avenue Manifold Heights,-38.136001,144.333838
Manifold Heights West,Western Heights College Minerva Campus,Minerva Road Herne Hill,Geelong,Western Victoria,12.17,Western Heights College Minerva Campus,Minerva Road Herne Hill,-38.131362,144.328892
Marnoo,Marnoo Primary School,80 Newall Street Marnoo,Ripon,Western Victoria,0.79,Marnoo Primary School,80 Newall Street Marnoo,-36.676911,142.869101
Maryborough,Maryborough Town Hall,Neill Street Maryborough,Ripon,Western Victoria,4.83,Maryborough Town Hall,Neill Street Maryborough,-37.046081,143.737048
Maryborough East,Highview College,21 Kars Street (entry via Burns Street)  Maryborough,Ripon,Western Victoria,4.95,Highview College,21 Kars Street (entry via Burns Street)  Maryborough,-37.053606,143.735889
Melton,Melton Primary School,Unitt Street Melton,Melton,Western Victoria,9.16,Melton Primary School,Unitt Street Melton,-37.680396,144.58638
Melton Central,Senior Citizens Centre,1-3 McKenzie Street Melton,Melton,Western Victoria,8.96,Senior Citizens Centre,1-3 McKenzie Street Melton,-37.684486,144.587488
Melton South,Melton South Primary School,38-45 Exford Road Melton South,Melton,Western Victoria,9.24,Melton South Primary School,38-45 Exford Road Melton South,-37.7086,144.574655
Melton West,Melton West Primary School,Westmelton Drive Melton West,Melton,Western Victoria,9.85,Melton West Primary School,Westmelton Drive Melton West,-37.67674,144.567607
Meredith,Meredith Memorial Hall,Straughton Street Meredith,Buninyong,Western Victoria,12.05,Meredith Memorial Hall,Straughton Street Meredith,-37.845809,144.075865
Merino,Merino Consolidated School,Paschendale Road Merino,Lowan,Western Victoria,5.82,Merino Consolidated School,Paschendale Road Merino,-37.708387,141.548217
Miners Rest,Miners Rest Primary School,Dundas Street Miners Rest,Ripon,Western Victoria,7.18,Miners Rest Primary School,Dundas Street Miners Rest,-37.477698,143.795452
Minimay,Minimay Soldiers Memorial Hall,591 Minimay Frances Tallageria Road Minimay,Lowan,Western Victoria,1.18,Minimay Soldiers Memorial Hall,591 Minimay Frances Tallageria Road Minimay,-36.712091,141.177221
Minyip,Minyip Memorial Hall,54-58 Main Street Minyip,Lowan,Western Victoria,3.11,Minyip Memorial Hall,54-58 Main Street Minyip,-36.459907,142.586423
Moolap,Moolap Primary School,30 Wills Crescent Moolap,Bellarine,Western Victoria,5.46,Moolap Primary School,30 Wills Crescent Moolap,-38.171498,144.424288
Moonambel,Moonambel State Primary School,24 Humffray Street Moonambel,Ripon,Western Victoria,8.79,Moonambel State Primary School,24 Humffray Street Moonambel,-36.989805,143.320732
Moriac,Moriac Community Centre,Hendy Main Road Moriac,South Barwon,Western Victoria,9.54,Moriac Community Centre,Hendy Main Road Moriac,-38.239943,144.175126
Mortlake,Mortlake Soldiers Memorial Hall,Shaw Street Mortlake,Polwarth,Western Victoria,6.60,Mortlake Soldiers Memorial Hall,Shaw Street Mortlake,-38.07933,142.810186
Mount Clear,Mount Clear Primary School,1206 Geelong Road Mount Clear,Buninyong,Western Victoria,12.57,Mount Clear Primary School,1206 Geelong Road Mount Clear,-37.604468,143.867854
Mount Duneed,Mount Duneed Regional Primary  School,Williams Road Mount Duneed,South Barwon,Western Victoria,10.71,Mount Duneed Regional Primary  School,Williams Road Mount Duneed,-38.242102,144.319053
Mount Egerton,Mount Egerton Mechanics Institute,Gordon Meredith Road Mount Egerton,Buninyong,Western Victoria,10.78,Mount Egerton Mechanics Institute,Gordon Meredith Road Mount Egerton,-37.627824,144.105153
Mount Pleasant,Mount Pleasant Primary School,401 Cobden Street (enter via Trethowan Street) Mount Pleasant,Buninyong,Western Victoria,17.43,Mount Pleasant Primary School,401 Cobden Street (enter via Trethowan Street) Mount Pleasant,-37.57778,143.857756
Mount Wallace,Mount Wallace Hall,Mount Wallace Hall Lane Mount Wallace,Buninyong,Western Victoria,7.74,Mount Wallace Hall,Mount Wallace Hall Lane Mount Wallace,-37.742002,144.219833
Moyston,Moyston Hall,Brooke Street Moyston,Lowan,Western Victoria,11.06,Moyston Hall,Brooke Street Moyston,-37.302369,142.765935
Murra Warra,Sailors Home Hall,Blue Ribbon Road Murra Warra,Lowan,Western Victoria,0.00,Sailors Home Hall,Blue Ribbon Road Murra Warra,-36.438467,142.227593
Murtoa,Murtoa Uniting Church Education Centre,McDonald Street Murtoa,Lowan,Western Victoria,5.10,Murtoa Uniting Church Education Centre,McDonald Street Murtoa,-36.620976,142.470089
Myrniong,Myrniong Primary School,Blow Street Myrniong,Buninyong,Western Victoria,11.95,Myrniong Primary School,Blow Street Myrniong,-37.618403,144.346261
Napoleons,Napoleons Primary School,4721 Colac-Ballarat Road Napoleons,Buninyong,Western Victoria,11.54,Napoleons Primary School,4721 Colac-Ballarat Road Napoleons,-37.674162,143.831123
Naringal,Naringal Public Hall,Cobden-Warrnambool Road Naringal,South-West Coast,Western Victoria,6.15,Naringal Public Hall,Cobden-Warrnambool Road Naringal,-38.395737,142.693484
Narrawong,Narrawong Mechanics Institute,Princes Highway Narrawong,South-West Coast,Western Victoria,7.89,Narrawong Mechanics Institute,Princes Highway Narrawong,-38.254544,141.705016
Natimuk,Natimuk Soldiers Memorial Hall,Main Road Natimuk,Lowan,Western Victoria,15.23,Natimuk Soldiers Memorial Hall,Main Road Natimuk,-36.742842,141.940594
Nelson,Nelson Community Centre,Leake Street Nelson,South-West Coast,Western Victoria,8.72,Nelson Community Centre,Leake Street Nelson,-38.047549,141.006207
Netherby,Netherby Hall,5 William Street Netherby,Lowan,Western Victoria,4.88,Netherby Hall,5 William Street Netherby,-36.108722,141.651568
Newbridge,Newbridge Public Hall,corner Burke and Lyon Streets Newbridge,Ripon,Western Victoria,6.08,Newbridge Public Hall,corner Burke and Lyon Streets Newbridge,-36.739952,143.900149
Newcomb,Newcomb Park Primary School,1 Richard Street Newcomb,Geelong,Western Victoria,8.37,Newcomb Park Primary School,1 Richard Street Newcomb,-38.164732,144.394807
Newcomb South,Newcomb Secondary College,81-85 Bellarine Highway Newcomb,Geelong,Western Victoria,8.47,Newcomb Secondary College,81-85 Bellarine Highway Newcomb,-38.170264,144.39556
Newlyn,Newlyn Primary School,2701 Midland Highway Newlyn,Ripon,Western Victoria,13.88,Newlyn Primary School,2701 Midland Highway Newlyn,-37.411866,143.984642
Nhill,Nhill Wesley Hall,57 Victoria Street Nhill,Lowan,Western Victoria,4.78,Nhill Wesley Hall,57 Victoria Street Nhill,-36.335326,141.648567
Noorat,Noorat Primary School,Noorat-McKinnons Bridge Road Noorat,Polwarth,Western Victoria,5.01,Noorat Primary School,Noorat-McKinnons Bridge Road Noorat,-38.191143,142.937958
Noradjuha,Noradjuha Memorial Hall,Natimuk-Hamilton Road Noradjuha,Lowan,Western Victoria,4.85,Noradjuha Memorial Hall,Natimuk-Hamilton Road Noradjuha,-36.836211,141.963727
Norlane,Norlane High School,137 Cox Road Norlane,Lara,Western Victoria,7.72,Norlane High School,137 Cox Road Norlane,-38.083244,144.341442
Norlane West,Norlane West Primary School,27-37 Peacock Avenue Norlane,Lara,Western Victoria,6.96,Norlane West Primary School,27-37 Peacock Avenue Norlane,-38.089047,144.342418
North Shore,North Shore Primary School,27 Tallis Street North Shore,Lara,Western Victoria,9.86,North Shore Primary School,27 Tallis Street North Shore,-38.090142,144.364083
Nullawarre,Nullawarre Public Hall,Timboon-Nullawarre Road Nullawarre,Polwarth,Western Victoria,4.98,Nullawarre Public Hall,Timboon-Nullawarre Road Nullawarre,-38.469325,142.753082
Oberon,Oberon Primary School,28 Dorothy Avenue Belmont,Geelong,Western Victoria,11.44,Oberon Primary School,28 Dorothy Avenue Belmont,-38.179827,144.343171
Oberon South,Oberon High School,12 Pickett Crescent Belmont,Geelong,Western Victoria,12.71,Oberon High School,12 Pickett Crescent Belmont,-38.186287,144.339451
Ocean Grove,Ocean Grove Primary School,Draper Street Ocean Grove,Bellarine,Western Victoria,18.86,Ocean Grove Primary School,Draper Street Ocean Grove,-38.263413,144.521972
Orford,Orford Memorial Hall,High Street Orford,South-West Coast,Western Victoria,3.06,Orford Memorial Hall,High Street Orford,-38.20314,142.101806
Panmure,Panmure Mechanics Institute,Princes Highway Panmure,South-West Coast,Western Victoria,13.15,Panmure Mechanics Institute,Princes Highway Panmure,-38.32831,142.731179
Patterson Park,Patterson Park Hall,191 King Street Hamilton,Lowan,Western Victoria,6.15,Patterson Park Hall,191 King Street Hamilton,-37.732947,142.025716
Penshurst,Penshurst Elderly Citizens Centre.,71a Bell Street Penshurst,Lowan,Western Victoria,5.45,Penshurst Elderly Citizens Centre.,71a Bell Street Penshurst,-37.875503,142.29321
Peterborough,Peterborough Golf Club,20 Schomberg Road Peterborough,Polwarth,Western Victoria,11.61,Peterborough Golf Club,20 Schomberg Road Peterborough,-38.608254,142.876357
Pimpinio,Pimpinio Uniting Church Hall,47 Church Street Pimpinio,Lowan,Western Victoria,0.00,Pimpinio Uniting Church Hall,47 Church Street Pimpinio,-36.584582,142.118878
Point Lonsdale,Point Lonsdale Primary School,22 Bowen Road Point Lonsdale,Bellarine,Western Victoria,14.12,Point Lonsdale Primary School,22 Bowen Road Point Lonsdale,-38.273839,144.621748
Pomonal,Pomonal Hall,Halls Gap-Ararat Road Pomonal,Lowan,Western Victoria,15.09,Pomonal Hall,Halls Gap-Ararat Road Pomonal,-37.19528,142.609399
Port Campbell,Port Campbell Baptist Church,Lord Street Port Campbell,Polwarth,Western Victoria,14.55,Port Campbell Baptist Church,Lord Street Port Campbell,-38.618886,142.995213
Port Fairy,St Patricks Parish Primary School,9 William Street Port Fairy,South-West Coast,Western Victoria,13.34,St Patricks Parish Primary School,9 William Street Port Fairy,-38.386336,142.231952
Portarlington,Portarlington Parks Hall,Newcombe Street Portarlington,Bellarine,Western Victoria,7.58,Portarlington Parks Hall,Newcombe Street Portarlington,-38.114912,144.655931
Portland,Drill Hall,22 Bentinck Street Portland,South-West Coast,Western Victoria,9.94,Drill Hall,22 Bentinck Street Portland,-38.352304,141.606714
Portland South,Legacy Lodge,60 Wellington Road Portland South,South-West Coast,Western Victoria,7.31,Legacy Lodge,60 Wellington Road Portland South,-38.357437,141.613591
Portland South West TAFE,Portland South West TAFE,154 Hurd Street Portland,South-West Coast,Western Victoria,6.26,Portland South West TAFE,154 Hurd Street Portland,-38.33649,141.601677
Purnim,Purnim Mechanics Hall,Hopkins Highway Purnim,South-West Coast,Western Victoria,10.63,Purnim Mechanics Hall,Hopkins Highway Purnim,-38.279499,142.622815
Quantong,Quantong Public Hall,52 Chequer Road Quantong,Lowan,Western Victoria,4.35,Quantong Public Hall,52 Chequer Road Quantong,-36.754801,142.025595
Queenscliff,Queenscliff Town Hall,50 Learmonth Street Queenscliff,Bellarine,Western Victoria,15.28,Queenscliff Town Hall,50 Learmonth Street Queenscliff,-38.267759,144.659029
Rainbow,Rainbow Civic Centre,15 Federal Street Rainbow,Lowan,Western Victoria,4.28,Rainbow Civic Centre,15 Federal Street Rainbow,-35.897638,141.994404
Redan,Redan Primary School,Hertford Street Sebastopol,Buninyong,Western Victoria,10.51,Redan Primary School,Hertford Street Sebastopol,-37.585342,143.835038
Riverside,Old School Park Reserve,158 Riverside Road Riverside,Lowan,Western Victoria,5.19,Old School Park Reserve,158 Riverside Road Riverside,-36.697342,142.233479
Rokewood,Rokewood Primary School,Aitchison Street Rokewood,Polwarth,Western Victoria,6.86,Rokewood Primary School,Aitchison Street Rokewood,-37.903937,143.72265
Rollins,Rollins Primary School,Wolseley Grove Bell Post Hill,Lara,Western Victoria,5.45,Rollins Primary School,Wolseley Grove Bell Post Hill,-38.100975,144.327131
Ross Creek,Ross Creek Hall,655 Sebastopol-Smythesdale Road Ross Creek,Buninyong,Western Victoria,10.08,Ross Creek Hall,655 Sebastopol-Smythesdale Road Ross Creek,-37.633356,143.755552
Rupanyup,Rupanyup Senior Citizens Hall,21 Dyer Street Rupanyup,Lowan,Western Victoria,3.36,Rupanyup Senior Citizens Hall,21 Dyer Street Rupanyup,-36.631955,142.629346
Scarsdale,Scarsdale Town Hall,Cape Clear Road Scarsdale,Buninyong,Western Victoria,9.88,Scarsdale Town Hall,Cape Clear Road Scarsdale,-37.665915,143.656894
Scotts Creek,Scotts Creek Public Hall,Cobden-Port Campbell Road Scotts Creek,Polwarth,Western Victoria,3.55,Scotts Creek Public Hall,Cobden-Port Campbell Road Scotts Creek,-38.450748,143.048222
Sebastopol,Sebastopol RSL,corner Birdwood Avenue and Beverin Street Sebastopol,Buninyong,Western Victoria,8.51,Sebastopol RSL,corner Birdwood Avenue and Beverin Street Sebastopol,-37.597432,143.839418
Serviceton,Serviceton Uniting Church Hall,Kent Street Serviceton,Lowan,Western Victoria,7.92,Serviceton Uniting Church Hall,Kent Street Serviceton,-36.377016,140.988542
Shannon,Newtown Primary School,157 Aberdeen Street Newton,Geelong,Western Victoria,13.97,Newtown Primary School,157 Aberdeen Street Newton,-38.146084,144.336273
Simpson,Simpson Primary School Early Childhood Centre,Princetown Road Simpson,Polwarth,Western Victoria,3.20,Simpson Primary School Early Childhood Centre,Princetown Road Simpson,-38.499235,143.206708
Skipton,Skipton Mechanics Institute,5 Anderson Street Skipton,Polwarth,Western Victoria,3.44,Skipton Mechanics Institute,5 Anderson Street Skipton,-37.686671,143.364308
Skipton Street,Skipton Street Uniting Church,corner Skipton and Darling Streets Redan,Wendouree,Western Victoria,17.01,Skipton Street Uniting Church,corner Skipton and Darling Streets Redan,-37.575631,143.845284
Smeaton,Smeaton Primary School,Queen Street Smeaton,Ripon,Western Victoria,7.77,Smeaton Primary School,Queen Street Smeaton,-37.336622,143.949923
Smythesdale,Smythesdale Recreation Facility,Heales Street Smythesdale,Buninyong,Western Victoria,10.25,Smythesdale Recreation Facility,Heales Street Smythesdale,-37.642244,143.680655
Snake Valley,Snake Valley Hall,Main Road Snake Valley,Ripon,Western Victoria,12.38,Snake Valley Hall,Main Road Snake Valley,-37.615235,143.587909
Springbank,St Michael's Primary School,738 Springbank Road Springbank,Buninyong,Western Victoria,10.58,St Michael's Primary School,738 Springbank Road Springbank,-37.532439,144.05369
St Albans Park,St Albans Uniting Church Hall,276 - 282 Wilsons Road St Albans Park,Geelong,Western Victoria,7.39,St Albans Uniting Church Hall,276 - 282 Wilsons Road St Albans Park,-38.184165,144.38852
St Arnaud,St Arnaud Town Hall,40 Napier Street St Arnaud,Ripon,Western Victoria,4.73,St Arnaud Town Hall,40 Napier Street St Arnaud,-36.615211,143.257513
St Helens,North Geelong Presbyterian Church,60 Victoria Street Rippleside,Lara,Western Victoria,10.38,North Geelong Presbyterian Church,60 Victoria Street Rippleside,-38.123951,144.357316
St Leonards,St Leonards Memorial Hall,Murradoc Road St Leonards,Bellarine,Western Victoria,9.38,St Leonards Memorial Hall,Murradoc Road St Leonards,-38.172501,144.714809
Stawell,Stawell Senior Citizens Rooms,Victoria Street Stawell,Ripon,Western Victoria,5.93,Stawell Senior Citizens Rooms,Victoria Street Stawell,-37.058397,142.777169
Stawell West,Stawell West Primary School,corner Longfield and Sutherland Streets Stawell West,Ripon,Western Victoria,5.25,Stawell West Primary School,corner Longfield and Sutherland Streets Stawell West,-37.06596,142.771341
Streatham,Streatham Public Hall,Glenelg Highway Streatham,Lowan,Western Victoria,0.79,Streatham Public Hall,Glenelg Highway Streatham,-37.681177,143.067067
Stuart Mill,Stuart Mill Community Hall,Stuart Mill Low Road Stuart Mill,Ripon,Western Victoria,7.55,Stuart Mill Community Hall,Stuart Mill Low Road Stuart Mill,-36.805255,143.286233
Surfside,Surfside Primary School,31-65 John Dory Drive Ocean Grove,Bellarine,Western Victoria,13.78,Surfside Primary School,31-65 John Dory Drive Ocean Grove,-38.261791,144.54225
Talbot,Talbot ANA Hall,Ballarat Street Talbot,Ripon,Western Victoria,11.29,Talbot ANA Hall,Ballarat Street Talbot,-37.1704,143.701902
Tarnagulla,Victoria Theatre,Commercial Road Tarnagulla,Ripon,Western Victoria,8.29,Victoria Theatre,Commercial Road Tarnagulla,-36.770455,143.832652
Tarrington,Lutheran School Hall,Hamilton Highway Tarrington,Lowan,Western Victoria,5.93,Lutheran School Hall,Hamilton Highway Tarrington,-37.76575,142.092346
Tatyoon,Tatyoon Public Hall,Tatyoon Road Tatyoon,Lowan,Western Victoria,4.40,Tatyoon Public Hall,Tatyoon Road Tatyoon,-37.525293,142.943824
Teesdale,Teesdale Primary School,Shelford-Bannockburn Rd (via Sutherland Street) Teesdale,Polwarth,Western Victoria,11.21,Teesdale Primary School,Shelford-Bannockburn Rd (via Sutherland Street) Teesdale,-38.029186,144.050927
Terang,Terang Civic Hall,105 High Street Terang,Polwarth,Western Victoria,5.06,Terang Civic Hall,105 High Street Terang,-38.24148,142.915308
The Stockade,St Alipius Primary School,106-108 Victoria Street Ballarat,Buninyong,Western Victoria,15.52,St Alipius Primary School,106-108 Victoria Street Ballarat,-37.561646,143.874551
Thomson,East Geelong Senior Citizens Club,Godfrey Street Geelong East,Geelong,Western Victoria,12.12,East Geelong Senior Citizens Club,Godfrey Street Geelong East,-38.16518,144.377047
Timboon,Timboon P-12 College,Hamilton Street Timboon,Polwarth,Western Victoria,8.08,Timboon P-12 College,Hamilton Street Timboon,-38.484293,142.975014
Toolondo,Toolondo Recreation Reserve,2955 Natimuk-Hamilton Road Toolondo,Lowan,Western Victoria,3.13,Toolondo Recreation Reserve,2955 Natimuk-Hamilton Road Toolondo,-36.990147,141.935798
Torquay,Surfcoast Sports and Recreation Centre,Beach Road Torquay,South Barwon,Western Victoria,19.66,Surfcoast Sports and Recreation Centre,Beach Road Torquay,-38.326218,144.316337
Torquay North,St Therese Primary School,50 Grossmans Road Torquay,South Barwon,Western Victoria,15.95,St Therese Primary School,50 Grossmans Road Torquay,-38.321229,144.312079
Tyrendarra,Tyrendarra War Memorial Hall,Princes Highway Tyrendarra,South-West Coast,Western Victoria,7.35,Tyrendarra War Memorial Hall,Princes Highway Tyrendarra,-38.217598,141.781797
Wallington,Wallington Primary School,610 Wallington Road (enter via Orchard Crescent) Wallington,Bellarine,Western Victoria,10.56,Wallington Primary School,610 Wallington Road (enter via Orchard Crescent) Wallington,-38.217988,144.507465
Wangoom,Wangoom Memorial Hall,Wangoom-Warrumyea Road Wangoom,South-West Coast,Western Victoria,6.48,Wangoom Memorial Hall,Wangoom-Warrumyea Road Wangoom,-38.329347,142.578817
Warracknabeal,Warracknabeal Scout & Band Hall,45 Devereux Street Warracknabeal,Lowan,Western Victoria,4.51,Warracknabeal Scout & Band Hall,45 Devereux Street Warracknabeal,-36.251651,142.396051
Warrenheip,Warrenheip Primary School,93 Main Road Warrenheip,Buninyong,Western Victoria,8.49,Warrenheip Primary School,93 Main Road Warrenheip,-37.5751,143.926039
Warrion,Warrion Public Hall,Coragulac-Beeac Road Warrion,Polwarth,Western Victoria,2.34,Warrion Public Hall,Coragulac-Beeac Road Warrion,-38.223993,143.57143
Warrnambool,Warrnambool Temperance Hall,Koroit Street Warrnambool,South-West Coast,Western Victoria,12.40,Warrnambool Temperance Hall,Koroit Street Warrnambool,-38.382576,142.480027
Warrnambool - Tower Square,Our Lady Help of Christians Primary School,Selby Road Warrnambool East,South-West Coast,Western Victoria,11.30,Our Lady Help of Christians Primary School,Selby Road Warrnambool East,-38.384743,142.520031
Warrnambool Central,Uniting Church Hall,115 Koroit Street Warrnambool,South-West Coast,Western Victoria,16.67,Uniting Church Hall,115 Koroit Street Warrnambool,-38.384201,142.483753
Warrnambool East,Warrnambool East Primary School,Ward Street Warrnambool,South-West Coast,Western Victoria,13.35,Warrnambool East Primary School,Ward Street Warrnambool,-38.389996,142.499046
Warrnambool Education Centre,Warrnambool Special Development School,101 Hyland Street Warrnambool,South-West Coast,Western Victoria,14.21,Warrnambool Special Development School,101 Hyland Street Warrnambool,-38.374549,142.472229
Warrnambool North,St Joseph's College Stadium,70 Botanic Road Warrnambool,South-West Coast,Western Victoria,11.71,St Joseph's College Stadium,70 Botanic Road Warrnambool,-38.372651,142.486455
Warrnambool South West,Merrivale Primary School,158 Merrivale Drive Warrnambool,South-West Coast,Western Victoria,12.10,Merrivale Primary School,158 Merrivale Drive Warrnambool,-38.377822,142.456563
Warrnambool West,Warrnambool Stadium,Warrnambool-Caramut Road Warrnambool,South-West Coast,Western Victoria,9.38,Warrnambool Stadium,Warrnambool-Caramut Road Warrnambool,-38.3554,142.459146
Waubra,Waubra Pre-School Centre,Hall Street Waubra,Ripon,Western Victoria,3.94,Waubra Pre-School Centre,Hall Street Waubra,-37.357528,143.636629
Waurn Ponds,KD Stewart Centre Deakin University,Nicol Drive North (enter via Pigdons Road) Waurn Ponds,South Barwon,Western Victoria,7.52,KD Stewart Centre Deakin University,Nicol Drive North (enter via Pigdons Road) Waurn Ponds,-38.198276,144.299423
Wedderburn,Wedderburn Senior Citizens Centre,Kerr Street Wedderburn,Ripon,Western Victoria,5.33,Wedderburn Senior Citizens Centre,Kerr Street Wedderburn,-36.420445,143.613426
Wendouree,Ballarat and Queens Grammar,201 Forest Street Wendouree,Wendouree,Western Victoria,10.29,Ballarat and Queens Grammar,201 Forest Street Wendouree,-37.536863,143.830849
Wendouree East,Linda Brown Pre-School,College Street Wendouree,Wendouree,Western Victoria,7.29,Linda Brown Pre-School,College Street Wendouree,-37.537557,143.836776
Wendouree North,Forest Street Primary School,corner Forest and Hancock Streets Wendouree,Wendouree,Western Victoria,6.53,Forest Street Primary School,corner Forest and Hancock Streets Wendouree,-37.522987,143.835845
Wendouree West,Yuille Park Community College,Violet Grove Wendouree,Wendouree,Western Victoria,7.65,Yuille Park Community College,Violet Grove Wendouree,-37.527749,143.820552
Whittington,Bellarine Living & Learning Centre,20 Wordon Court (enter via Solar Drive) Whittington,Geelong,Western Victoria,7.84,Bellarine Living & Learning Centre,20 Wordon Court (enter via Solar Drive) Whittington,-38.178239,144.394812
Whittington South,St Pauls Anglican Church Hall,corner Wilsons and Townsend Roads Whittington,Geelong,Western Victoria,7.43,St Pauls Anglican Church Hall,corner Wilsons and Townsend Roads Whittington,-38.180833,144.389858
Willaura,Willaura Primary School,15 Warranooke Street Willaura,Lowan,Western Victoria,2.98,Willaura Primary School,15 Warranooke Street Willaura,-37.544223,142.738584
Winchelsea,Winchelsea Senior Citizens Centre,36 Harding Street Winchelsea,Polwarth,Western Victoria,8.02,Winchelsea Senior Citizens Centre,36 Harding Street Winchelsea,-38.241201,143.992559
Winchelsea South,Wurdale Hall,220 Wurdale Road Winchelsea South,Polwarth,Western Victoria,9.38,Wurdale Hall,220 Wurdale Road Winchelsea South,-38.315415,144.009222
Wiridijil,Wiridijil Hall,Princetown Road Cooriemungle,Polwarth,Western Victoria,8.97,Wiridijil Hall,Princetown Road Cooriemungle,-38.610681,143.176685
Wonwondah North,Wonwondah North Public Hall,56 Wonwondah Reserve Road Wonwondah North,Lowan,Western Victoria,0.00,Wonwondah North Public Hall,56 Wonwondah Reserve Road Wonwondah North,-36.879463,142.133352
Woodford,Woodford Primary School,8 Victoria Street Woodford,South-West Coast,Western Victoria,8.37,Woodford Primary School,8 Victoria Street Woodford,-38.316681,142.484744
Woolsthorpe,Woolsthorpe Primary School,12 Manifold Street Woolsthorpe,South-West Coast,Western Victoria,3.63,Woolsthorpe Primary School,12 Manifold Street Woolsthorpe,-38.187353,142.432707
Yambuk,Yambuk Public Hall,Princes Highway Yambuk,South-West Coast,Western Victoria,9.42,Yambuk Public Hall,Princes Highway Yambuk,-38.316568,142.066777
Yanac,Yanac Public Hall,Francis Street Yanac,Lowan,Western Victoria,1.19,Yanac Public Hall,Francis Street Yanac,-36.136789,141.436061
